[{"OBJECT_NAME":"CORVUS BC1","OBJECT_ID":"2017-042Y","EPOCH":"2026-03-09T22:24:00.973440","MEAN_MOTION":15.05817893,"ECCENTRICITY":0.00132832,"INCLINATION":97.3986,"RA_OF_ASC_NODE":234.9925,"ARG_OF_PERICENTER":71.1953,"MEAN_ANOMALY":289.0714,"EPHEMERIS_TYPE":0,"CLASSIFICATION_TYPE":"U","NORAD_CAT_ID":42847,"ELEMENT_SET_NO":999,"REV_AT_EPOCH":47215,"BSTAR":0.00033801202,"MEAN_MOTION_DOT":4.853e-5,"MEAN_MOTION_DDOT":0},{"OBJECT_NAME":"STARLINK-5091","OBJECT_ID":"2022-177BF","EPOCH":"2026-03-09T13:53:38.814144","MEAN_MOTION":15.031382,"ECCENTRICITY":8.06e-5,"INCLINATION":43.0026,"RA_OF_ASC_NODE":120.4912,"ARG_OF_PERICENTER":315.7493,"MEAN_ANOMALY":44.3285,"EPHEMERIS_TYPE":0,"CLASSIFICATION_TYPE":"U","NORAD_CAT_ID":54873,"ELEMENT_SET_NO":999,"REV_AT_EPOCH":17709,"BSTAR":0.00023146,"MEAN_MOTION_DOT":2.974e-5,"MEAN_MOTION_DDOT":0}]
